{
"type": "FeatureCollection",
"name": "inference_extent_15km_latlon",
"crs": { "type": "name", "properties": { "name": "urn:ogc:def:crs:OGC:1.3:CRS84" } },
"features": [
{ "type": "Feature", "properties": { "id": 3, "left": 746442.8783, "top": 1047877.3588, "right": 761442.8783, "bottom": 1032877.3588, "row_index": 2, "col_index": 0 }, "geometry": { "type": "MultiPolygon", "coordinates": [ [ [ [ -0.755415206528729, 9.472422942391619 ], [ -0.618875191796344, 9.471521909254953 ], [ -0.619802470021716, 9.335966429494176 ], [ -0.756289424261452, 9.336854343365902 ], [ -0.755415206528729, 9.472422942391619 ] ] ] ] } }
]
}
